CCSDS_OMM_VERS = 2.0
CREATION_DATE  = 
ORIGINATOR     = 

OBJECT_NAME    = SL-14 R/B
OBJECT_ID      = 1986-046B
CENTER_NAME    = EARTH
REF_FRAME      = TEME
TIME_SYSTEM    = UTC
MEAN_ELEMENT_THEORY = SGP/SGP4

EPOCH          = 2025-12-11T23:21:57.943584
MEAN_MOTION    = 14.85483407
ECCENTRICITY   = .0023735
INCLINATION    = 82.4811
RA_OF_ASC_NODE = 163.0378
ARG_OF_PERICENTER = 154.7036
MEAN_ANOMALY   = 205.5348

EPHEMERIS_TYPE = 0
CLASSIFICATION_TYPE = U
NORAD_CAT_ID   = 16792
ELEMENT_SET_NO = 999
REV_AT_EPOCH   = 11338
BSTAR          = .948E-4
MEAN_MOTION_DOT = .846E-5
MEAN_MOTION_DDOT = 0

CCSDS_OMM_VERS = 2.0
CREATION_DATE  = 
ORIGINATOR     = 

OBJECT_NAME    = SL-14 R/B
OBJECT_ID      = 1986-055B
CENTER_NAME    = EARTH
REF_FRAME      = TEME
TIME_SYSTEM    = UTC
MEAN_ELEMENT_THEORY = SGP/SGP4

EPOCH          = 2025-12-12T02:47:32.422272
MEAN_MOTION    = 14.85530014
ECCENTRICITY   = .00174623
INCLINATION    = 82.5204
RA_OF_ASC_NODE = 208.9586
ARG_OF_PERICENTER = 261.6718
MEAN_ANOMALY   = 211.9122

EPHEMERIS_TYPE = 0
CLASSIFICATION_TYPE = U
NORAD_CAT_ID   = 16882
ELEMENT_SET_NO = 999
REV_AT_EPOCH   = 10636
BSTAR          = .80135589E-4
MEAN_MOTION_DOT = .718E-5
MEAN_MOTION_DDOT = 0

CCSDS_OMM_VERS = 2.0
CREATION_DATE  = 
ORIGINATOR     = 

OBJECT_NAME    = AJISAI (EGS)
OBJECT_ID      = 1986-061A
CENTER_NAME    = EARTH
REF_FRAME      = TEME
TIME_SYSTEM    = UTC
MEAN_ELEMENT_THEORY = SGP/SGP4

EPOCH          = 2025-12-12T06:21:55.662048
MEAN_MOTION    = 12.44514275
ECCENTRICITY   = .00112922
INCLINATION    = 50.0113
RA_OF_ASC_NODE = 2.1763
ARG_OF_PERICENTER = 64.7172
MEAN_ANOMALY   = 22.6768

EPHEMERIS_TYPE = 0
CLASSIFICATION_TYPE = U
NORAD_CAT_ID   = 16908
ELEMENT_SET_NO = 999
REV_AT_EPOCH   = 45711
BSTAR          = .51824469E-4
MEAN_MOTION_DOT = -.9E-6
MEAN_MOTION_DDOT = 0

CCSDS_OMM_VERS = 2.0
CREATION_DATE  = 
ORIGINATOR     = 

OBJECT_NAME    = COSMOS 1812
OBJECT_ID      = 1987-003A
CENTER_NAME    = EARTH
REF_FRAME      = TEME
TIME_SYSTEM    = UTC
MEAN_ELEMENT_THEORY = SGP/SGP4

EPOCH          = 2025-12-12T06:51:35.322336
MEAN_MOTION    = 15.75384593
ECCENTRICITY   = .00072239
INCLINATION    = 82.4867
RA_OF_ASC_NODE = 292.5082
ARG_OF_PERICENTER = 88.0716
MEAN_ANOMALY   = 272.1376

EPHEMERIS_TYPE = 0
CLASSIFICATION_TYPE = U
NORAD_CAT_ID   = 17295
ELEMENT_SET_NO = 999
REV_AT_EPOCH   = 13058
BSTAR          = .85621404E-3
MEAN_MOTION_DOT = .130927E-2
MEAN_MOTION_DDOT = 0

CCSDS_OMM_VERS = 2.0
CREATION_DATE  = 
ORIGINATOR     = 

OBJECT_NAME    = SL-14 R/B
OBJECT_ID      = 1987-024B
CENTER_NAME    = EARTH
REF_FRAME      = TEME
TIME_SYSTEM    = UTC
MEAN_ELEMENT_THEORY = SGP/SGP4

EPOCH          = 2025-12-12T00:55:51.679776
MEAN_MOTION    = 14.86022551
ECCENTRICITY   = .00180124
INCLINATION    = 82.5274
RA_OF_ASC_NODE = 175.1130
ARG_OF_PERICENTER = 186.5509
MEAN_ANOMALY   = 173.5475

EPHEMERIS_TYPE = 0
CLASSIFICATION_TYPE = U
NORAD_CAT_ID   = 17567
ELEMENT_SET_NO = 999
REV_AT_EPOCH   = 7511
BSTAR          = .84379713E-4
MEAN_MOTION_DOT = .764E-5
MEAN_MOTION_DDOT = 0

CCSDS_OMM_VERS = 2.0
CREATION_DATE  = 
ORIGINATOR     = 

OBJECT_NAME    = COSMOS 1833
OBJECT_ID      = 1987-027A
CENTER_NAME    = EARTH
REF_FRAME      = TEME
TIME_SYSTEM    = UTC
MEAN_ELEMENT_THEORY = SGP/SGP4

EPOCH          = 2025-12-12T03:38:05.721504
MEAN_MOTION    = 14.13021247
ECCENTRICITY   = .00225143
INCLINATION    = 70.9137
RA_OF_ASC_NODE = 150.0141
ARG_OF_PERICENTER = 332.5461
MEAN_ANOMALY   = 27.4469

EPHEMERIS_TYPE = 0
CLASSIFICATION_TYPE = U
NORAD_CAT_ID   = 17589
ELEMENT_SET_NO = 999
REV_AT_EPOCH   = 99794
BSTAR          = .10966552E-3
MEAN_MOTION_DOT = .157E-5
MEAN_MOTION_DDOT = 0

CCSDS_OMM_VERS = 2.0
CREATION_DATE  = 
ORIGINATOR     = 

OBJECT_NAME    = SL-16 R/B
OBJECT_ID      = 1987-027B
CENTER_NAME    = EARTH
REF_FRAME      = TEME
TIME_SYSTEM    = UTC
MEAN_ELEMENT_THEORY = SGP/SGP4

EPOCH          = 2025-12-12T07:24:02.329056
MEAN_MOTION    = 14.17152128
ECCENTRICITY   = .0007416
INCLINATION    = 71.0028
RA_OF_ASC_NODE = 100.6270
ARG_OF_PERICENTER = 259.8708
MEAN_ANOMALY   = 100.1580

EPHEMERIS_TYPE = 0
CLASSIFICATION_TYPE = U
NORAD_CAT_ID   = 17590
ELEMENT_SET_NO = 999
REV_AT_EPOCH   = 296
BSTAR          = .29616238E-4
MEAN_MOTION_DOT = .12E-6
MEAN_MOTION_DDOT = 0

CCSDS_OMM_VERS = 2.0
CREATION_DATE  = 
ORIGINATOR     = 

OBJECT_NAME    = SL-14 R/B
OBJECT_ID      = 1987-038B
CENTER_NAME    = EARTH
REF_FRAME      = TEME
TIME_SYSTEM    = UTC
MEAN_ELEMENT_THEORY = SGP/SGP4

EPOCH          = 2025-12-12T04:34:48.338400
MEAN_MOTION    = 14.85260668
ECCENTRICITY   = .00209
INCLINATION    = 82.5018
RA_OF_ASC_NODE = 19.2181
ARG_OF_PERICENTER = 93.7562
MEAN_ANOMALY   = 266.6044

EPHEMERIS_TYPE = 0
CLASSIFICATION_TYPE = U
NORAD_CAT_ID   = 17912
ELEMENT_SET_NO = 999
REV_AT_EPOCH   = 6624
BSTAR          = .781826E-4
MEAN_MOTION_DOT = .698E-5
MEAN_MOTION_DDOT = 0

CCSDS_OMM_VERS = 2.0
CREATION_DATE  = 
ORIGINATOR     = 

OBJECT_NAME    = COSMOS 1844
OBJECT_ID      = 1987-041A
CENTER_NAME    = EARTH
REF_FRAME      = TEME
TIME_SYSTEM    = UTC
MEAN_ELEMENT_THEORY = SGP/SGP4

EPOCH          = 2025-12-12T03:18:16.841952
MEAN_MOTION    = 14.14526107
ECCENTRICITY   = .00300921
INCLINATION    = 70.8976
RA_OF_ASC_NODE = 218.8415
ARG_OF_PERICENTER = 158.0877
MEAN_ANOMALY   = 202.1540

EPHEMERIS_TYPE = 0
CLASSIFICATION_TYPE = U
NORAD_CAT_ID   = 17973
ELEMENT_SET_NO = 999
REV_AT_EPOCH   = 99120
BSTAR          = -.3055157E-5
MEAN_MOTION_DOT = -.54E-6
MEAN_MOTION_DDOT = 0

CCSDS_OMM_VERS = 2.0
CREATION_DATE  = 
ORIGINATOR     = 

OBJECT_NAME    = SL-14 R/B
OBJECT_ID      = 1987-055B
CENTER_NAME    = EARTH
REF_FRAME      = TEME
TIME_SYSTEM    = UTC
MEAN_ELEMENT_THEORY = SGP/SGP4

EPOCH          = 2025-12-12T06:00:14.149728
MEAN_MOTION    = 14.85520824
ECCENTRICITY   = .00194269
INCLINATION    = 82.5002
RA_OF_ASC_NODE = 71.4500
ARG_OF_PERICENTER = 305.0696
MEAN_ANOMALY   = 54.8698

EPHEMERIS_TYPE = 0
CLASSIFICATION_TYPE = U
NORAD_CAT_ID   = 18153
ELEMENT_SET_NO = 999
REV_AT_EPOCH   = 5695
BSTAR          = .92250121E-4
MEAN_MOTION_DOT = .823E-5
MEAN_MOTION_DDOT = 0

CCSDS_OMM_VERS = 2.0
CREATION_DATE  = 
ORIGINATOR     = 

OBJECT_NAME    = COSMOS 1867
OBJECT_ID      = 1987-060A
CENTER_NAME    = EARTH
REF_FRAME      = TEME
TIME_SYSTEM    = UTC
MEAN_ELEMENT_THEORY = SGP/SGP4

EPOCH          = 2025-12-11T23:22:42.577824
MEAN_MOTION    = 14.31485875
ECCENTRICITY   = .0013624
INCLINATION    = 65.0092
RA_OF_ASC_NODE = 192.3470
ARG_OF_PERICENTER = 271.0133
MEAN_ANOMALY   = 88.9390

EPHEMERIS_TYPE = 0
CLASSIFICATION_TYPE = U
NORAD_CAT_ID   = 18187
ELEMENT_SET_NO = 999
REV_AT_EPOCH   = 738
BSTAR          = .33399E-4
MEAN_MOTION_DOT = -.11E-6
MEAN_MOTION_DDOT = 0

CCSDS_OMM_VERS = 2.0
CREATION_DATE  = 
ORIGINATOR     = 

OBJECT_NAME    = SL-14 R/B
OBJECT_ID      = 1988-001B
CENTER_NAME    = EARTH
REF_FRAME      = TEME
TIME_SYSTEM    = UTC
MEAN_ELEMENT_THEORY = SGP/SGP4

EPOCH          = 2025-12-12T05:45:12.071520
MEAN_MOTION    = 14.85423349
ECCENTRICITY   = .00184344
INCLINATION    = 82.5132
RA_OF_ASC_NODE = 277.6175
ARG_OF_PERICENTER = 162.6814
MEAN_ANOMALY   = 197.5035

EPHEMERIS_TYPE = 0
CLASSIFICATION_TYPE = U
NORAD_CAT_ID   = 18749
ELEMENT_SET_NO = 999
REV_AT_EPOCH   = 2904
BSTAR          = .95220545E-4
MEAN_MOTION_DOT = .847E-5
MEAN_MOTION_DDOT = 0

