SL-14 R/B               
1 16792U 86046B   25345.97358731  .00000846  00000+0  94800-4 0  9993
2 16792  82.4811 163.0378 0023735 154.7036 205.5348 14.85483407113382
SL-14 R/B               
1 16882U 86055B   25346.11634748  .00000718  00000+0  80136-4 0  9990
2 16882  82.5204 208.9586 0017462 261.6718 211.9122 14.85530014106362
AJISAI (EGS)            
1 16908U 86061A   25346.26522757 -.00000090  00000+0  51824-4 0  9994
2 16908  50.0113   2.1763 0011292  64.7172  22.6768 12.44514275457111
COSMOS 1812             
1 17295U 87003A   25346.28582549  .00130927  00000+0  85621-3 0  9991
2 17295  82.4867 292.5082 0007223  88.0716 272.1376 15.75384593130588
SL-14 R/B               
1 17567U 87024B   25346.03879259  .00000764  00000+0  84380-4 0  9993
2 17567  82.5274 175.1130 0018012 186.5509 173.5475 14.86022551 75110
COSMOS 1833             
1 17589U 87027A   25346.15145511  .00000157  00000+0  10967-3 0  9995
2 17589  70.9137 150.0141 0022514 332.5461  27.4469 14.13021247997944
SL-16 R/B               
1 17590U 87027B   25346.30836029  .00000012  00000+0  29616-4 0  9997
2 17590  71.0028 100.6270 0007416 259.8708 100.1580 14.17152128  2969
SL-14 R/B               
1 17912U 87038B   25346.19083725  .00000698  00000+0  78183-4 0  9994
2 17912  82.5018  19.2181 0020900  93.7562 266.6044 14.85260668 66243
COSMOS 1844             
1 17973U 87041A   25346.13769493 -.00000054  00000+0 -30552-5 0  9999
2 17973  70.8976 218.8415 0030092 158.0877 202.1540 14.14526107991201
SL-14 R/B               
1 18153U 87055B   25346.25016377  .00000823  00000+0  92250-4 0  9998
2 18153  82.5002  71.4500 0019426 305.0696  54.8698 14.85520824 56959
COSMOS 1867             
1 18187U 87060A   25345.97410391 -.00000011  00000+0  33399-4 0  9992
2 18187  65.0092 192.3470 0013624 271.0133  88.9390 14.31485875  7389
SL-14 R/B               
1 18749U 88001B   25346.23972305  .00000847  00000+0  95221-4 0  9998
2 18749  82.5132 277.6175 0018434 162.6814 197.5035 14.85423349 29043
